{
  "type": "FeatureCollection",
  "features": [
    {
      "type": "Feature",
      "properties": {
        "norad_id": 54259,
        "name": "EUTELSAT 10B",
        "group": "eutelsat",
        "lat": -0.056519231663121935,
        "lon": -37.086198934807626,
        "alt_km": 35788.06416303703,
        "timestamp": "2025-12-22T14:45:57.056491+00:00",
        "meta_object_name": "EUTELSAT 10B",
        "meta_object_id": "2022-157A",
        "meta_epoch": "2025-12-22T04:39:12.028608",
        "meta_mean_motion": 1.00272829,
        "meta_eccentricity": 7.418e-05,
        "meta_inclination": 0.0598,
        "meta_ra_of_asc_node": 96.7964,
        "meta_arg_of_pericenter": 3.3264,
        "meta_mean_anomaly": 70.6993,
        "meta_ephemeris_type": 0,
        "meta_classification_type": "U",
        "meta_norad_cat_id": 54259,
        "meta_element_set_no": 999,
        "meta_rev_at_epoch": 1125,
        "meta_bstar": 0,
        "meta_mean_motion_dot": 9.1e-07,
        "meta_mean_motion_ddot": 0,
        "tle_line1": "1 54259U 22157A   25356.19388922  .00000091  00000+0  00000+0 0  9993",
        "tle_line2": "2 54259   0.0598  96.7964 0000741   3.3264  70.6993  1.00272829 11254"
      },
      "geometry": {
        "type": "Point",
        "coordinates": [
          -37.086198934807626,
          -0.056519231663121935
        ]
      }
    },
    {
      "type": "Feature",
      "properties": {
        "norad_id": 59346,
        "name": "EUTELSAT 36D",
        "group": "eutelsat",
        "lat": -0.02531499270573269,
        "lon": -11.255164567250636,
        "alt_km": 35783.498086529304,
        "timestamp": "2025-12-22T14:45:57.056502+00:00",
        "meta_object_name": "EUTELSAT 36D",
        "meta_object_id": "2024-059A",
        "meta_epoch": "2025-12-22T01:29:38.558112",
        "meta_mean_motion": 1.00269849,
        "meta_eccentricity": 7.6e-05,
        "meta_inclination": 0.0226,
        "meta_ra_of_asc_node": 30.2034,
        "meta_arg_of_pericenter": 334.9815,
        "meta_mean_anomaly": 143.951,
        "meta_ephemeris_type": 0,
        "meta_classification_type": "U",
        "meta_norad_cat_id": 59346,
        "meta_element_set_no": 999,
        "meta_rev_at_epoch": 637,
        "meta_bstar": 0,
        "meta_mean_motion_dot": 0,
        "meta_mean_motion_ddot": 0,
        "tle_line1": "1 59346U 24059A   25356.06225183  .00000000  00000+0  00000+0 0  9993",
        "tle_line2": "2 59346   0.0226  30.2034 0000760 334.9815 143.9510  1.00269849  6375"
      },
      "geometry": {
        "type": "Point",
        "coordinates": [
          -11.255164567250636,
          -0.02531499270573269
        ]
      }
    }
  ]
}